[{"OBJECT_NAME":"OBJECT AD","OBJECT_ID":"2023-085AD","EPOCH":"2026-03-09T21:41:29.115744","MEAN_MOTION":15.31779154,"ECCENTRICITY":0.00101154,"INCLINATION":97.4841,"RA_OF_ASC_NODE":180.2223,"ARG_OF_PERICENTER":77.5993,"MEAN_ANOMALY":282.638,"EPHEMERIS_TYPE":0,"CLASSIFICATION_TYPE":"U","NORAD_CAT_ID":57031,"ELEMENT_SET_NO":999,"REV_AT_EPOCH":15156,"BSTAR":0.00068352515,"MEAN_MOTION_DOT":0.00020961,"MEAN_MOTION_DDOT":0},{"OBJECT_NAME":"STARLINK-35885","OBJECT_ID":"2025-283N","EPOCH":"2026-03-09T03:54:23.708160","MEAN_MOTION":15.30188363,"ECCENTRICITY":0.00011031,"INCLINATION":53.1607,"RA_OF_ASC_NODE":26.6013,"ARG_OF_PERICENTER":89.2595,"MEAN_ANOMALY":270.8532,"EPHEMERIS_TYPE":0,"CLASSIFICATION_TYPE":"U","NORAD_CAT_ID":66890,"ELEMENT_SET_NO":999,"REV_AT_EPOCH":1576,"BSTAR":0.0010857992,"MEAN_MOTION_DOT":0.00031926,"MEAN_MOTION_DDOT":0}]
